NORAD_CAT_ID,OBJECT_NAME,OBJECT_TYPE,EPOCH,MEAN_MOTION,ECCENTRICITY,INCLINATION,RA_OF_ASC_NODE,ARG_OF_PERICENTER,MEAN_ANOMALY,BSTAR,MEAN_MOTION_DOT,MEAN_MOTION_DDOT,TLE_LINE0,TLE_LINE1,TLE_LINE2,SEMIMAJOR_AXIS,PERIOD,APOGEE,PERIGEE,DECAYED
52000.0,STARLINK-3653,PAYLOAD,2023-05-30 00:25:53,15.08838359,7.63e-05,53.2173,254.0686,101.805,258.3027,3.7731e-05,3.13e-06,0.0,0 STARLINK-3653,1 52000U 22025AW  23150.01797875  .00000313  00000-0  37731-4 0  9995,2 52000  53.2173 254.0686 0000763 101.8050 258.3027 15.08838359 69273,6917.885,95.438,540.278,539.223,0.0
52000.0,STARLINK-3653,PAYLOAD,2023-05-30 11:33:35,15.08837036,7.62e-05,53.2175,251.9863,95.3172,264.7907,2.9095e-05,1.75e-06,0.0,0 STARLINK-3653,1 52000U 22025AW  23150.48166014  .00000175  00000-0  29095-4 0  9991,2 52000  53.2175 251.9863 0000762  95.3172 264.7907 15.08837036 67816,6917.889,95.438,540.282,539.227,0.0
52000.0,STARLINK-3653,PAYLOAD,2023-05-30 13:08:58,15.08842444,8.02e-05,53.2172,251.6893,104.9372,255.1709,-1.8469e-05,-5.82e-06,0.0,0 STARLINK-3653,1 52000U 22025AW  23150.54789803 -.00000582  00000-0 -18469-4 0  9992,2 52000  53.2172 251.6893 0000802 104.9372 255.1709 15.08842444 67821,6917.873,95.437,540.293,539.183,0.0
52000.0,STARLINK-3653,PAYLOAD,2023-05-31 11:24:22,15.08841813,7.69e-05,53.2165,247.5285,86.9173,273.1907,7.3769e-05,8.87e-06,0.0,0 STARLINK-3653,1 52000U 22025AW  23151.47525595  .00000887  00000-0  73769-4 0  9991,2 52000  53.2165 247.5285 0000769  86.9173 273.1907 15.08841813 69496,6917.875,95.437,540.272,539.208,0.0
52000.0,STARLINK-3653,PAYLOAD,2023-05-31 12:59:44,15.08847947,7.87e-05,53.2164,247.2306,98.7383,261.3698,3.6422e-05,2.92e-06,0.0,0 STARLINK-3653,1 52000U 22025AW  23151.54149304  .00000292  00000-0  36422-4 0  9994,2 52000  53.2164 247.2306 0000787  98.7383 261.3698 15.08847947 67971,6917.856,95.437,540.266,539.177,0.0
52000.0,STARLINK-3653,PAYLOAD,2023-06-01 11:15:09,15.08837729,8.3e-05,53.2161,243.0683,77.7883,282.3202,9.0092e-05,1.146e-05,0.0,0 STARLINK-3653,1 52000U 22025AW  23152.46885872  .00001146  00000-0  90092-4 0  9995,2 52000  53.2161 243.0683 0000830  77.7883 282.3202 15.08837729 68119,6917.887,95.438,540.327,539.178,0.0
52000.0,STARLINK-3653,PAYLOAD,2023-06-02 12:41:19,15.08838714,8.14e-05,53.2162,238.3105,80.074,280.0344,7.8789e-06,-1.62e-06,0.0,0 STARLINK-3653,1 52000U 22025AW  23153.52870220 -.00000162  00000-0  78789-5 0  9992,2 52000  53.2162 238.3105 0000814  80.0740 280.0344 15.08838714 68271,6917.884,95.438,540.312,539.186,0.0
52000.0,STARLINK-3653,PAYLOAD,2023-06-03 10:56:44,15.0883224,7.87e-05,53.216,234.1483,93.1775,266.9307,4.3762e-06,-2.18e-06,0.0,0 STARLINK-3653,1 52000U 22025AW  23154.45606804 -.00000218  00000-0  43762-5 0  9995,2 52000  53.2160 234.1483 0000787  93.1775 266.9307 15.08832240 69949,6917.904,95.438,540.314,539.225,0.0
52000.0,STARLINK-3653,PAYLOAD,2023-06-03 14:07:30,15.08835329,8.11e-05,53.2161,233.5536,90.5431,269.5654,2.8044e-05,1.59e-06,0.0,0 STARLINK-3653,1 52000U 22025AW  23154.58854570  .00000159  00000-0  28044-4 0  9992,2 52000  53.2161 233.5536 0000811  90.5431 269.5654 15.08835329 68438,6917.895,95.438,540.321,539.199,0.0
52000.0,STARLINK-3653,PAYLOAD,2023-06-04 09:12:07,15.08838854,7.62e-05,53.2165,229.9846,90.6843,269.4236,7.4381e-05,8.96e-06,0.0,0 STARLINK-3653,1 52000U 22025AW  23155.38342427  .00000896  00000-0  74381-4 0  9997,2 52000  53.2165 229.9846 0000762  90.6843 269.4236 15.08838854 70083,6917.884,95.438,540.276,539.222,0.0
52000.0,STARLINK-3653,PAYLOAD,2023-06-04 12:22:53,15.08841844,7.41e-05,53.2165,229.3887,97.0858,263.0218,0.00010238,1.342e-05,0.0,0 STARLINK-3653,1 52000U 22025AW  23155.51590104  .00001342  00000-0  10238-3 0  9996,2 52000  53.2165 229.3887 0000741  97.0858 263.0218 15.08841844 68570,6917.875,95.437,540.252,539.227,0.0
52000.0,STARLINK-3653,PAYLOAD,2023-06-04 21:55:12,15.08841181,7.4e-05,53.2166,227.6059,91.5581,268.5496,6.7944e-05,7.94e-06,0.0,0 STARLINK-3653,1 52000U 22025AW  23155.91334259  .00000794  00000-0  67944-4 0  9994,2 52000  53.2166 227.6059 0000740  91.5581 268.5496 15.08841181 68633,6917.877,95.437,540.254,539.23,0.0
52000.0,STARLINK-3653,PAYLOAD,2023-06-05 10:38:17,15.08842933,7.83e-05,53.2164,225.2265,87.8192,272.289,8.0879e-05,1e-05,0.0,0 STARLINK-3653,1 52000U 22025AW  23156.44326191  .00001000  00000-0  80879-4 0  9992,2 52000  53.2164 225.2265 0000783  87.8192 272.2890 15.08842933 70243,6917.871,95.437,540.278,539.195,0.0
52000.0,STARLINK-3653,PAYLOAD,2023-06-05 13:49:03,15.08845971,7.84e-05,53.2163,224.6318,87.0804,273.0278,0.00010419,1.371e-05,0.0,0 STARLINK-3653,1 52000U 22025AW  23156.57573920  .00001371  00000-0  10419-3 0  9993,2 52000  53.2163 224.6318 0000784  87.0804 273.0278 15.08845971 68732,6917.862,95.437,540.269,539.185,0.0
52000.0,STARLINK-3653,PAYLOAD,2023-06-05 21:46:00,15.08838549,8.07e-05,53.216,223.1444,83.4014,276.7069,3.6097e-05,2.87e-06,0.0,0 STARLINK-3653,1 52000U 22025AW  23156.90694541  .00000287  00000-0  36097-4 0  9999,2 52000  53.2160 223.1444 0000807  83.4014 276.7069 15.08838549 70310,6917.885,95.438,540.308,539.192,0.0
52000.0,STARLINK-3653,PAYLOAD,2023-06-06 10:29:05,15.08838352,8.65e-05,53.2161,220.7654,95.1956,264.9135,4.0765e-05,3.61e-06,0.0,0 STARLINK-3653,1 52000U 22025AW  23157.43686579  .00000361  00000-0  40765-4 0  9990,2 52000  53.2161 220.7654 0000865  95.1956 264.9135 15.08838352 68868,6917.885,95.438,540.349,539.152,0.0
52000.0,STARLINK-3653,PAYLOAD,2023-06-07 02:22:56,15.08837494,8.78e-05,53.2161,217.7921,88.4818,271.6274,1.8223e-05,2e-08,0.0,0 STARLINK-3653,1 52000U 22025AW  23158.09926669  .00000002  00000-0  18223-4 0  9996,2 52000  53.2161 217.7921 0000878  88.4818 271.6274 15.08837494 70494,6917.888,95.438,540.36,539.146,0.0
52000.0,STARLINK-3653,PAYLOAD,2023-06-07 08:44:28,15.08840449,8.73e-05,53.2162,216.6027,88.5376,271.5716,4.1637e-05,3.75e-06,0.0,0 STARLINK-3653,1 52000U 22025AW  23158.36422430  .00000375  00000-0  41637-4 0  9991,2 52000  53.2162 216.6027 0000873  88.5376 271.5716 15.08840449 69004,6917.879,95.438,540.348,539.14,0.0
52000.0,STARLINK-3653,PAYLOAD,2023-06-07 21:27:34,15.08828962,8.75e-05,53.2162,214.224,95.5345,264.5747,0.00020236,2.933e-05,0.0,0 STARLINK-3653,1 52000U 22025AW  23158.89414704  .00002933  00000-0  20236-3 0  9997,2 52000  53.2162 214.2240 0000875  95.5345 264.5747 15.08828962 69081,6917.914,95.438,540.384,539.174,0.0
52000.0,STARLINK-3653,PAYLOAD,2023-06-07 23:02:58,15.08807683,9.49e-05,53.2161,213.927,102.3114,257.7984,0.00048365,7.411e-05,0.0,0 STARLINK-3653,1 52000U 22025AW  23158.96039419  .00007411  00000-0  48365-3 0  9990,2 52000  53.2161 213.9270 0000949 102.3114 257.7984 15.08807683 70628,6917.979,95.44,540.501,539.188,0.0
52000.0,STARLINK-3653,PAYLOAD,2023-06-08 08:35:16,15.0883566,9e-05,53.216,212.143,86.0278,274.0817,3.9828e-05,3.46e-06,0.0,0 STARLINK-3653,1 52000U 22025AW  23159.35782760  .00000346  00000-0  39828-4 0  9993,2 52000  53.2160 212.1430 0000900  86.0278 274.0817 15.08835660 70681,6917.894,95.438,540.381,539.136,0.0
52000.0,STARLINK-3653,PAYLOAD,2023-06-08 13:21:25,15.08838908,9.09e-05,53.2158,211.2505,89.915,270.1946,5.6147e-05,6.06e-06,0.0,0 STARLINK-3653,1 52000U 22025AW  23159.55654505  .00000606  00000-0  56147-4 0  9992,2 52000  53.2158 211.2505 0000909  89.9150 270.1946 15.08838908 69182,6917.884,95.438,540.378,539.12,0.0
52000.0,STARLINK-3653,PAYLOAD,2023-06-09 10:01:26,15.08840549,8.87e-05,53.2155,207.3848,88.4429,271.6665,5.2555e-05,5.49e-06,0.0,0 STARLINK-3653,1 52000U 22025AW  23160.41766452  .00000549  00000-0  52555-4 0  9999,2 52000  53.2155 207.3848 0000887  88.4429 271.6665 15.08840549 70846,6917.879,95.438,540.357,539.13,0.0
52000.0,STARLINK-3653,PAYLOAD,2023-06-09 19:33:45,15.08836365,8.65e-05,53.2154,205.6011,86.5674,273.5417,6.7672e-06,-1.8e-06,0.0,0 STARLINK-3653,1 52000U 22025AW  23160.81510890 -.00000180  00000-0  67672-5 0  9995,2 52000  53.2154 205.6011 0000865  86.5674 273.5417 15.08836365 69378,6917.891,95.438,540.355,539.158,0.0
52000.0,STARLINK-3653,PAYLOAD,2023-06-10 03:30:41,15.08835742,8.75e-05,53.2155,204.1138,88.9701,271.1391,-7.0696e-05,-1.412e-05,0.0,0 STARLINK-3653,1 52000U 22025AW  23161.14631284 -.00001412  00000-0 -70696-4 0  9992,2 52000  53.2155 204.1138 0000875  88.9701 271.1391 15.08835742 70950,6917.893,95.438,540.364,539.153,0.0
52000.0,STARLINK-3653,PAYLOAD,2023-06-10 13:03:00,15.08835049,9.19e-05,53.2157,202.33,85.8183,274.2914,8.8282e-06,-1.47e-06,0.0,0 STARLINK-3653,1 52000U 22025AW  23161.54375232 -.00000147  00000-0  88282-5 0  9998,2 52000  53.2157 202.3300 0000919  85.8183 274.2914 15.08835049 69483,6917.896,95.438,540.396,539.125,0.0
52000.0,STARLINK-3653,PAYLOAD,2023-06-10 19:24:32,15.08834686,9.18e-05,53.2156,201.1405,85.2152,274.8945,-2.9095e-07,-2.92e-06,0.0,0 STARLINK-3653,1 52000U 22025AW  23161.80871361 -.00000292  00000-0 -29095-6 0  9991,2 52000  53.2156 201.1405 0000918  85.2152 274.8945 15.08834686 69525,6917.897,95.438,540.397,539.127,0.0
52000.0,STARLINK-3653,PAYLOAD,2023-06-11 09:43:00,15.08844931,8.9e-05,53.2155,198.4643,85.6694,274.44,8.1588e-05,1.011e-05,0.0,0 STARLINK-3653,1 52000U 22025AW  23162.40486521  .00001011  00000-0  81588-4 0  9999,2 52000  53.2155 198.4643 0000890  85.6694 274.4400 15.08844931 71147,6917.865,95.437,540.346,539.115,0.0
52000.0,STARLINK-3653,PAYLOAD,2023-06-11 19:15:19,15.0885778,8.06e-05,53.2156,196.6804,78.1981,281.9101,-0.00019074,-3.323e-05,0.0,0 STARLINK-3653,1 52000U 22025AW  23162.80230367 -.00003323  00000-0 -19074-3 0  9998,2 52000  53.2156 196.6804 0000806  78.1981 281.9101 15.08857780 69672,6917.826,95.436,540.249,539.133,0.0
52000.0,STARLINK-3653,PAYLOAD,2023-06-12 11:09:11,15.0883649,8.06e-05,53.2155,193.7062,87.6918,272.4166,4.5079e-05,4.3e-06,0.0,0 STARLINK-3653,1 52000U 22025AW  23163.46471228  .00000430  00000-0  45079-4 0  9993,2 52000  53.2155 193.7062 0000806  87.6918 272.4166 15.08836490 69772,6917.891,95.438,540.314,539.199,0.0
